[{"OBJECT_NAME":"CINEMA","OBJECT_ID":"2012-048G","EPOCH":"2026-03-09T23:21:38.910528","MEAN_MOTION":15.41758997,"ECCENTRICITY":0.00644529,"INCLINATION":64.645,"RA_OF_ASC_NODE":61.8658,"ARG_OF_PERICENTER":204.5071,"MEAN_ANOMALY":155.2999,"EPHEMERIS_TYPE":0,"CLASSIFICATION_TYPE":"U","NORAD_CAT_ID":38764,"ELEMENT_SET_NO":999,"REV_AT_EPOCH":10191,"BSTAR":0.00076174658,"MEAN_MOTION_DOT":0.0003483,"MEAN_MOTION_DDOT":0},{"OBJECT_NAME":"STARLINK-31564","OBJECT_ID":"2024-073R","EPOCH":"2026-03-09T01:35:05.423136","MEAN_MOTION":15.27593113,"ECCENTRICITY":7.568e-5,"INCLINATION":43.0026,"RA_OF_ASC_NODE":321.25,"ARG_OF_PERICENTER":267.9298,"MEAN_ANOMALY":92.1467,"EPHEMERIS_TYPE":0,"CLASSIFICATION_TYPE":"U","NORAD_CAT_ID":59526,"ELEMENT_SET_NO":999,"REV_AT_EPOCH":10608,"BSTAR":5.9569374e-5,"MEAN_MOTION_DOT":1.378e-5,"MEAN_MOTION_DDOT":0}]
